OBJECT_NAME,OBJECT_ID,EPOCH,MEAN_MOTION,ECCENTRICITY,INCLINATION,RA_OF_ASC_NODE,ARG_OF_PERICENTER,MEAN_ANOMALY,EPHEMERIS_TYPE,CLASSIFICATION_TYPE,NORAD_CAT_ID,ELEMENT_SET_NO,REV_AT_EPOCH,BSTAR,MEAN_MOTION_DOT,MEAN_MOTION_DDOT
OCEANSAT-2,2009-051A,2026-07-14T03:35:42.892800,13.99656131,.0017278,98.2319,179.3093,156.4979,203.6981,0,U,35931,999,88310,-.48551E-4,-.109E-5,0
WORLDVIEW-2 (WV-2),2009-055A,2026-07-14T03:54:53.557632,14.37906750,.0005272,98.4757,268.2454,132.3607,227.8027,0,U,35946,999,87952,.26938E-4,.38E-6,0
SMOS,2009-059A,2026-07-14T02:01:36.206976,14.39735700,.0001148,98.4427,22.0252,95.6420,264.4899,0,U,36036,999,87732,.59124E-4,.142E-5,0
YAOGAN-7,2009-069A,2026-07-14T04:02:21.843168,14.78035004,.0023577,98.0034,80.8644,314.8213,45.1081,0,U,36110,999,89361,.38605E-4,.227E-5,0
TANDEM-X,2010-030A,2026-07-07T11:29:58.986816,15.19154052,.0001887,97.4457,195.8973,94.3019,265.8431,0,U,36605,999,88972,.21566E-4,.386E-5,0
CARTOSAT-2B,2010-035A,2026-07-14T03:17:47.842656,14.78615537,.0012568,97.9945,245.5123,102.2899,257.9720,0,U,36795,999,86383,-.48439E-5,-.88E-6,0
YAOGAN-10,2010-038A,2026-07-14T05:32:06.279936,14.85427246,.0001621,97.8970,218.4191,84.8580,343.6418,0,U,36834,999,86122,.13439E-3,.1104E-4,0
COSMO-SKYMED 4,2010-060A,2026-07-14T04:16:12.040032,14.82146153,.0001486,97.8887,18.3871,85.4978,274.6404,0,U,37216,999,84856,-.43113E-4,-.395E-5,0
RESOURCESAT-2,2011-015A,2026-07-13T18:20:18.372192,14.21605668,.0011518,98.7633,262.0207,175.1171,185.0120,0,U,37387,999,78995,.33701E-4,.3E-6,0
HAIYANG-2A,2011-043A,2026-07-14T04:49:25.832352,13.73411759,.0002567,99.3396,197.2592,32.0658,328.0646,0,U,37781,999,75036,-.15824E-5,-.45E-6,0
RASAT,2011-044D,2026-07-14T05:35:02.452992,14.68192367,.0021906,98.0587,286.2169,105.5880,308.9874,0,U,37791,999,79715,.62886E-4,.314E-5,0
SRMSAT,2011-058D,2026-07-13T10:56:57.365664,14.11580880,.00118107,19.9713,260.4725,132.1672,338.6137,0,U,37841,999,76153,.42888582E-4,.344E-5,0
PLEIADES 1A,2011-076F,2026-07-14T05:22:49.048320,14.58546338,.0001677,98.1976,269.9623,80.9118,344.3797,0,U,38012,999,77593,.2449E-4,.68E-6,0
ZIYUAN 1-02C (ZY 1-02C),2011-079A,2026-07-14T05:07:59.327040,14.38235018,.0005541,98.4068,261.9561,218.0571,234.2139,0,U,38038,999,76309,.5836E-4,.134E-5,0
ARIRANG-3 (KOMPSAT-3),2012-025B,2026-07-14T03:08:38.318784,14.62228519,.0006285,98.1184,152.1285,41.7001,318.4678,0,U,38338,999,75528,.47038E-4,.19E-5,0
EXACTVIEW-1 (ADS-1B),2012-039C,2026-07-13T22:08:40.761600,14.24992033,.0011948,98.9803,312.9202,94.8270,265.4273,0,U,38709,999,72651,.33544E-4,.32E-6,0
SPOT 6,2012-047A,2026-07-14T03:48:16.764768,14.58538166,.0001101,98.2116,262.1498,85.0800,275.0525,0,U,38755,999,73698,.14103E-4,.2E-6,0
PLEIADES 1B,2012-068A,2026-07-14T04:15:03.148128,14.58533652,.0001588,98.1948,269.8558,79.9014,280.2364,0,U,39019,999,72478,.93953E-5,-.2E-7,0
GOKTURK 2,2012-073A,2026-07-14T03:18:38.783232,14.75567934,.00009,97.6808,31.2177,86.7442,273.3872,0,U,39030,999,72848,.39651E-4,.223E-5,0
LANDSAT 8,2013-008A,2026-07-14T03:35:03.768288,14.57111449,.0001336,98.2291,264.9628,94.3870,265.7481,0,U,39084,999,70182,.44842E-4,.157E-5,0
SARAL,2013-009A,2026-07-14T03:14:14.474400,14.32895660,.0001635,98.5554,21.3613,169.2578,190.8641,0,U,39086,999,69946,.32375E-4,.45E-6,0
GAOFEN-1,2013-018A,2026-07-14T04:04:56.500032,14.76518852,.0017018,97.9094,266.6878,174.4187,185.7216,0,U,39150,999,71222,.82819E-4,.527E-5,0
VNREDSAT 1,2013-021B,2026-07-14T03:19:14.536416,14.64883581,.0001585,97.9072,247.5182,80.8419,279.2963,0,U,39160,999,70423,.78509E-4,.374E-5,0
ARIRANG-5 (KOMPSAT-5),2013-042A,2026-07-13T23:15:10.169280,15.04525151,.0005588,97.6209,21.2936,62.3144,297.8649,0,U,39227,999,70788,.59206E-4,.769E-5,0
SKYSAT-A,2013-066C,2026-07-14T02:35:03.797376,15.13111799,.0020388,97.3804,243.6470,217.4239,142.5573,0,U,39418,999,69255,.89681E-4,.1531E-4,0
DUBAISAT-2,2013-066D,2026-07-14T05:38:43.207584,15.10374430,.0009548,97.4572,184.6753,306.8662,53.1691,0,U,39419,999,69047,.19043E-3,.3066E-4,0
GPM-CORE,2014-009C,2026-07-14T03:21:27.260640,15.45035789,.0010987,64.9691,217.8235,261.6300,98.3595,0,U,39574,999,70197,.78728E-4,.3483E-4,0
SENTINEL-1A,2014-016A,2026-07-14T04:17:37.066272,14.59200607,.0001436,98.1780,202.3179,87.1869,272.9495,0,U,39634,999,65395,.14072E-4,.21E-6,0
KAZEOSAT 1,2014-024A,2026-07-14T03:37:57.357984,14.42036707,.0001238,98.3205,266.9261,83.2053,276.9278,0,U,39731,999,64244,.12003E-5,-.39E-6,0
ALOS-2,2014-029A,2026-07-14T04:36:55.734336,14.79472258,.0001601,97.9233,291.9699,92.8596,267.2799,0,U,39766,999,65557,.85072E-4,.584E-5,0
KAZEOSAT 2,2014-033A,2026-07-14T04:10:24.973824,14.85499880,.0007349,97.5394,33.3588,223.3179,136.7459,0,U,40010,999,65296,.7823E-4,.625E-5,0
