OCEANSAT-2              
1 35931U 09051A   26195.14980200 -.00000109  00000+0 -48551-4 0  9991
2 35931  98.2319 179.3093 0017278 156.4979 203.6981 13.99656131883106
WORLDVIEW-2 (WV-2)      
1 35946U 09055A   26195.16311988  .00000038  00000+0  26938-4 0  9998
2 35946  98.4757 268.2454 0005272 132.3607 227.8027 14.37906750879529
SMOS                    
1 36036U 09059A   26195.08444684  .00000142  00000+0  59124-4 0  9993
2 36036  98.4427  22.0252 0001148  95.6420 264.4899 14.39735700877325
YAOGAN-7                
1 36110U 09069A   26195.16830837  .00000227  00000+0  38605-4 0  9990
2 36110  98.0034  80.8644 0023577 314.8213  45.1081 14.78035004893611
TANDEM-X                
1 36605U 10030A   26188.47915494  .00000386  00000+0  21566-4 0  9992
2 36605  97.4457 195.8973 0001887  94.3019 265.8431 15.19154052889726
CARTOSAT-2B             
1 36795U 10035A   26195.13735929 -.00000088  00000+0 -48439-5 0  9991
2 36795  97.9945 245.5123 0012568 102.2899 257.9720 14.78615537863837
YAOGAN-10               
1 36834U 10038A   26195.23062824  .00001104  00000+0  13439-3 0  9994
2 36834  97.8970 218.4191 0001621  84.8580 343.6418 14.85427246861226
COSMO-SKYMED 4          
1 37216U 10060A   26195.17791713 -.00000395  00000+0 -43113-4 0  9999
2 37216  97.8887  18.3871 0001486  85.4978 274.6404 14.82146153848569
RESOURCESAT-2           
1 37387U 11015A   26194.76410153  .00000030  00000+0  33701-4 0  9995
2 37387  98.7633 262.0207 0011518 175.1171 185.0120 14.21605668789958
HAIYANG-2A              
1 37781U 11043A   26195.20099343 -.00000045  00000+0 -15824-5 0  9993
2 37781  99.3396 197.2592 0002567  32.0658 328.0646 13.73411759750367
RASAT                   
1 37791U 11044D   26195.23266728  .00000314  00000+0  62886-4 0  9997
2 37791  98.0587 286.2169 0021906 105.5880 308.9874 14.68192367797150
SRMSAT                  
1 37841U 11058D   26194.45621951  .00000344  00000+0  42889-4 0  9998
2 37841  19.9713 260.4725 0011810 132.1672 338.6137 14.11580880761533
PLEIADES 1A             
1 38012U 11076F   26195.22417880  .00000068  00000+0  24490-4 0  9990
2 38012  98.1976 269.9623 0001677  80.9118 344.3797 14.58546338775936
ZIYUAN 1-02C (ZY 1-02C) 
1 38038U 11079A   26195.21388110  .00000134  00000+0  58360-4 0  9990
2 38038  98.4068 261.9561 0005541 218.0571 234.2139 14.38235018763092
ARIRANG-3 (KOMPSAT-3)   
1 38338U 12025B   26195.13099906  .00000190  00000+0  47038-4 0  9990
2 38338  98.1184 152.1285 0006285  41.7001 318.4678 14.62228519755280
EXACTVIEW-1 (ADS-1B)    
1 38709U 12039C   26194.92269400  .00000032  00000+0  33544-4 0  9993
2 38709  98.9803 312.9202 0011948  94.8270 265.4273 14.24992033726515
SPOT 6                  
1 38755U 12047A   26195.15852737  .00000020  00000+0  14103-4 0  9997
2 38755  98.2116 262.1498 0001101  85.0800 275.0525 14.58538166736989
PLEIADES 1B             
1 39019U 12068A   26195.17711977 -.00000002  00000+0  93953-5 0  9998
2 39019  98.1948 269.8558 0001588  79.9014 280.2364 14.58533652724783
GOKTURK 2               
1 39030U 12073A   26195.13794888  .00000223  00000+0  39651-4 0  9993
2 39030  97.6808  31.2177 0000900  86.7442 273.3872 14.75567934728488
LANDSAT 8               
1 39084U 13008A   26195.14934917  .00000157  00000+0  44842-4 0  9995
2 39084  98.2291 264.9628 0001336  94.3870 265.7481 14.57111449701826
SARAL                   
1 39086U 13009A   26195.13488975  .00000045  00000+0  32375-4 0  9999
2 39086  98.5554  21.3613 0001635 169.2578 190.8641 14.32895660699460
GAOFEN-1                
1 39150U 13018A   26195.17009838  .00000527  00000+0  82819-4 0  9995
2 39150  97.9094 266.6878 0017018 174.4187 185.7216 14.76518852712221
VNREDSAT 1              
1 39160U 13021B   26195.13836269  .00000374  00000+0  78509-4 0  9993
2 39160  97.9072 247.5182 0001585  80.8419 279.2963 14.64883581704235
ARIRANG-5 (KOMPSAT-5)   
1 39227U 13042A   26194.96886770  .00000769  00000+0  59206-4 0  9993
2 39227  97.6209  21.2936 0005588  62.3144 297.8649 15.04525151707881
SKYSAT-A                
1 39418U 13066C   26195.10768284  .00001531  00000+0  89681-4 0  9995
2 39418  97.3804 243.6470 0020388 217.4239 142.5573 15.13111799692555
DUBAISAT-2              
1 39419U 13066D   26195.23522231  .00003066  00000+0  19043-3 0  9999
2 39419  97.4572 184.6753 0009548 306.8662  53.1691 15.10374430690472
GPM-CORE                
1 39574U 14009C   26195.13989885  .00003483  00000+0  78728-4 0  9999
2 39574  64.9691 217.8235 0010987 261.6300  98.3595 15.45035789701976
SENTINEL-1A             
1 39634U 14016A   26195.17890123  .00000021  00000+0  14072-4 0  9991
2 39634  98.1780 202.3179 0001436  87.1869 272.9495 14.59200607653957
KAZEOSAT 1              
1 39731U 14024A   26195.15135831 -.00000039  00000+0  12003-5 0  9997
2 39731  98.3205 266.9261 0001238  83.2053 276.9278 14.42036707642444
ALOS-2                  
1 39766U 14029A   26195.19231174  .00000584  00000+0  85072-4 0  9990
2 39766  97.9233 291.9699 0001601  92.8596 267.2799 14.79472258655577
KAZEOSAT 2              
1 40010U 14033A   26195.17390016  .00000625  00000+0  78230-4 0  9992
2 40010  97.5394  33.3588 0007349 223.3179 136.7459 14.85499880652963
